     2              NAVIGATION DATA                         RINEX VERSION / TYPE
CCRINEXN V1.6.0 UX  CDDIS               18-SEP-16 15:33     PGM / RUN BY / DATE 
IGS BROADCAST EPHEMERIS FILE                                COMMENT             
    0.7451D-08  0.1490D-07 -0.5960D-07 -0.1192D-06          ION ALPHA           
    0.7987D+05  0.1638D+05 -0.1311D+06 -0.1311D+06          ION BETA            
    0.372529029846D-08 0.532907051820D-14   147456     1915 DELTA-UTC: A0,A1,T,W
    17                                                      LEAP SECONDS        
                                                            END OF HEADER       
23 16  9 17 16  0  0.0-0.190240796655D-03-0.136424205266D-11 0.000000000000D+00
    0.810000000000D+02 0.965937500000D+02 0.490841874106D-08 0.266797905652D+01
    0.480934977531D-05 0.111564416438D-01 0.809319317341D-05 0.515361576843D+04
    0.576000000000D+06-0.968575477600D-07-0.208244149149D+01-0.176951289177D-06
    0.945380805740D+00 0.213875000000D+03-0.253096573921D+01-0.821927093705D-08
    0.487877464912D-09 0.100000000000D+01 0.191400000000D+04 0.000000000000D+00
    0.290000000000D+01 0.000000000000D+00-0.200234353542D-07 0.810000000000D+02
    0.568800000000D+06 0.400000000000D+01 0.000000000000D+00 0.000000000000D+00
24 16  9 17 16  0  0.0-0.232956372201D-04-0.568434188608D-12 0.000000000000D+00
    0.920000000000D+02-0.530000000000D+02 0.525200448135D-08 0.212945415604D+01
   -0.276602804661D-05 0.465491856448D-02 0.304356217384D-05 0.515372157860D+04
    0.576000000000D+06-0.124797224999D-06-0.105677198039D+01 0.279396772385D-07
    0.947858743196D+00 0.312281250000D+03 0.395679458369D+00-0.873572102070D-08
   -0.287154818294D-09 0.100000000000D+01 0.191400000000D+04 0.000000000000D+00
    0.200000000000D+01 0.000000000000D+00 0.232830643654D-08 0.920000000000D+02
    0.568800000000D+06 0.400000000000D+01 0.000000000000D+00 0.000000000000D+00
26 16  9 17 16  0  0.0-0.471211504191D-03-0.716227077646D-11 0.000000000000D+00
    0.100000000000D+03-0.582812500000D+02 0.416695928487D-08-0.454326467561D+00
   -0.298768281937D-05 0.978790456429D-03 0.138767063618D-04 0.515358838272D+04
    0.576000000000D+06 0.502914190292D-07 0.747054185234D-02-0.558793544769D-07
    0.960518429562D+00 0.108718750000D+03-0.912997005990D-01-0.791497254752D-08
   -0.216794744657D-09 0.100000000000D+01 0.191400000000D+04 0.000000000000D+00
    0.200000000000D+01 0.000000000000D+00 0.698491930962D-08 0.100000000000D+03
    0.570300000000D+06 0.400000000000D+01 0.000000000000D+00 0.000000000000D+00
27 16  9 17 16  0  0.0 0.140436459333D-03 0.477484718431D-11 0.000000000000D+00
    0.730000000000D+02 0.938750000000D+02 0.451911681078D-08-0.233138758936D+01
    0.471994280815D-05 0.382078578696D-02 0.842101871967D-05 0.515364807510D+04
    0.576000000000D+06 0.316649675369D-07 0.105861507724D+01-0.165775418282D-06
    0.972305450185D+00 0.224625000000D+03 0.347316732553D+00-0.812355266429D-08
    0.693957477543D-09 0.100000000000D+01 0.191400000000D+04 0.000000000000D+00
    0.200000000000D+01 0.000000000000D+00 0.186264514923D-08 0.730000000000D+02
    0.568800000000D+06 0.400000000000D+01 0.000000000000D+00 0.000000000000D+00
28 16  9 17 16  0  0.0 0.552722718567D-03 0.284217094304D-11 0.000000000000D+00
    0.500000000000D+02-0.165312500000D+02 0.353443293760D-08-0.147883659998D+01
   -0.502914190292D-06 0.198633298278D-01 0.133570283651D-04 0.515363852310D+04
    0.576000000000D+06-0.745058059692D-08 0.942599036290D-01 0.540167093277D-06
    0.989733380517D+00 0.138062500000D+03-0.161181735727D+01-0.755281460504D-08
   -0.675028117631D-10 0.100000000000D+01 0.191400000000D+04 0.000000000000D+00
    0.280000000000D+01 0.000000000000D+00-0.107102096081D-07 0.500000000000D+02
    0.568800000000D+06 0.400000000000D+01 0.000000000000D+00 0.000000000000D+00
29 16  9 17 16  0  0.0 0.650614034385D-03-0.125055521494D-11 0.000000000000D+00
    0.118000000000D+03 0.100531250000D+03 0.453054571636D-08-0.358174683162D+00
    0.534020364284D-05 0.563003006391D-03 0.746548175812D-05 0.515374618149D+04
    0.576000000000D+06 0.298023223877D-07 0.111902003266D+01-0.931322574616D-08
    0.978334694424D+00 0.246750000000D+03 0.130795366872D+00-0.818141199232D-08
    0.733959171217D-09 0.100000000000D+01 0.191400000000D+04 0.000000000000D+00
    0.280000000000D+01 0.000000000000D+00-0.102445483208D-07 0.118000000000D+03
    0.568800000000D+06 0.000000000000D+00 0.000000000000D+00 0.000000000000D+00
30 16  9 17 16  0  0.0 0.150702428073D-03 0.159161572810D-11 0.000000000000D+00
    0.810000000000D+02-0.619062500000D+02 0.504878173060D-08 0.119398733839D+01
   -0.314600765705D-05 0.240384100471D-02 0.374764204025D-05 0.515376733208D+04
    0.576000000000D+06-0.167638063431D-07-0.965089404876D+00 0.428408384323D-07
    0.950624299123D+00 0.301531250000D+03-0.313680396096D+01-0.858535761461D-08
   -0.337156901081D-09 0.100000000000D+01 0.191400000000D+04 0.000000000000D+00
    0.200000000000D+01 0.000000000000D+00 0.372529029846D-08 0.810000000000D+02
    0.568800000000D+06 0.400000000000D+01 0.000000000000D+00 0.000000000000D+00
31 16  9 17 16  0  0.0 0.247471965849D-03-0.204636307899D-11 0.000000000000D+00
    0.490000000000D+02-0.566875000000D+02 0.468483799945D-08 0.989366427997D+00
   -0.291503965855D-05 0.831512152217D-02 0.346638262272D-05 0.515354590416D+04
    0.576000000000D+06 0.199303030968D-06-0.997779530894D+00 0.875443220139D-07
    0.969625366708D+00 0.314312500000D+03-0.381104374824D+00-0.846713840459D-08
   -0.318941856637D-09 0.100000000000D+01 0.191400000000D+04 0.000000000000D+00
    0.200000000000D+01 0.000000000000D+00-0.135041773319D-07 0.490000000000D+02
    0.568800000000D+06 0.400000000000D+01 0.000000000000D+00 0.000000000000D+00
32 16  9 17 16  0  0.0-0.118952710182D-03-0.144382283907D-10 0.000000000000D+00
    0.810000000000D+02 0.100968750000D+03 0.458804825348D-08-0.190781920117D+01
    0.532716512680D-05 0.658236676827D-03 0.850856304169D-05 0.515364694023D+04
    0.576000000000D+06 0.279396772385D-07-0.208466183540D+01-0.113621354103D-06
    0.959033482863D+00 0.218187500000D+03-0.234497504229D+01-0.820641325862D-08
    0.545737017852D-09 0.100000000000D+01 0.191400000000D+04 0.000000000000D+00
    0.290000000000D+01 0.000000000000D+00 0.931322574616D-09 0.810000000000D+02
    0.568800000000D+06 0.400000000000D+01 0.000000000000D+00 0.000000000000D+00
 5 16  9 17 17 59 44.0-0.904370099306D-04 0.261479726760D-11 0.000000000000D+00
    0.600000000000D+01-0.419062500000D+02 0.462340686917D-08-0.482070091583D+00
   -0.226870179176D-05 0.475143617950D-02 0.125188380480D-04 0.515360730171D+04
    0.583184000000D+06 0.335276126862D-07-0.313817666819D+01 0.949949026108D-07
    0.946996608999D+00 0.131156250000D+03 0.508759810402D+00-0.811498087867D-08
   -0.376801409577D-09 0.100000000000D+01 0.191400000000D+04 0.000000000000D+00
    0.200000000000D+01 0.000000000000D+00-0.107102096081D-07 0.600000000000D+01
    0.582450000000D+06 0.400000000000D+01 0.000000000000D+00 0.000000000000D+00
23 16  9 17 17 59 44.0-0.190249644220D-03-0.136424205266D-11 0.000000000000D+00
    0.700000000000D+01 0.103937500000D+03 0.493699135979D-08-0.256729025552D+01
    0.523775815964D-05 0.111555687617D-01 0.819563865662D-05 0.515361742401D+04
    0.583184000000D+06 0.670552253723D-07-0.208250110394D+01-0.232830643654D-06
    0.945384265541D+00 0.211093750000D+03-0.253099622350D+01-0.828463080241D-08
    0.566095008701D-09 0.100000000000D+01 0.191400000000D+04 0.000000000000D+00
    0.200000000000D+01 0.000000000000D+00-0.200234353542D-07 0.700000000000D+01
    0.576000000000D+06 0.400000000000D+01 0.000000000000D+00 0.000000000000D+00
28 16  9 17 17 59 44.0 0.552732963115D-03 0.272848410532D-11 0.000000000000D+00
    0.700000000000D+01-0.322500000000D+02 0.362836542170D-08-0.431026090012D+00
   -0.170432031155D-05 0.198617520509D-01 0.135302543640D-04 0.515363519287D+04
    0.583184000000D+06-0.281259417534D-06 0.942032989398D-01 0.188127160072D-06
    0.989731995133D+00 0.142156250000D+03-0.161176536077D+01-0.787568519676D-08
    0.185722021782D-10 0.100000000000D+01 0.191400000000D+04 0.000000000000D+00
    0.200000000000D+01 0.000000000000D+00-0.107102096081D-07 0.700000000000D+01
    0.579456000000D+06 0.400000000000D+01 0.000000000000D+00 0.000000000000D+00
29 16  9 17 17 59 44.0 0.650608912110D-03-0.125055521494D-11 0.000000000000D+00
    0.340000000000D+02 0.969062500000D+02 0.441911264521D-08 0.690067817740D+00
    0.498257577419D-05 0.562752014957D-03 0.769086182117D-05 0.515374561119D+04
    0.583184000000D+06 0.670552253723D-07 0.111896177048D+01 0.856816768646D-07
    0.978340272531D+00 0.246750000000D+03 0.130355392797D+00-0.809105131048D-08
    0.703243578632D-09 0.100000000000D+01 0.191400000000D+04 0.000000000000D+00
    0.200000000000D+01 0.000000000000D+00-0.102445483208D-07 0.340000000000D+02
    0.578280000000D+06 0.400000000000D+01 0.000000000000D+00 0.000000000000D+00
32 16  9 17 17 59 44.0-0.119055621326D-03-0.144382283907D-10 0.000000000000D+00
    0.600000000000D+01 0.105343750000D+03 0.473912597505D-08-0.860530919310D+00
    0.528804957867D-05 0.658551813103D-03 0.821612775326D-05 0.515364633560D+04
    0.583184000000D+06 0.856816768646D-07-0.208472071347D+01 0.391155481338D-07
    0.959036574008D+00 0.222531250000D+03-0.234439838046D+01-0.833749014707D-08
    0.466805158594D-09 0.100000000000D+01 0.191400000000D+04 0.000000000000D+00
    0.200000000000D+01 0.000000000000D+00 0.931322574616D-09 0.600000000000D+01
    0.576390000000D+06 0.400000000000D+01 0.000000000000D+00 0.000000000000D+00
